[{"OBJECT_NAME":"FENGYUN 1C DEB","OBJECT_ID":"1999-025CGT","EPOCH":"2026-04-03T16:05:15.938304","MEAN_MOTION":14.05041985,"ECCENTRICITY":0.04381469,"INCLINATION":98.3756,"RA_OF_ASC_NODE":74.4472,"ARG_OF_PERICENTER":200.6605,"MEAN_ANOMALY":157.6362,"EPHEMERIS_TYPE":0,"CLASSIFICATION_TYPE":"U","NORAD_CAT_ID":31805,"ELEMENT_SET_NO":999,"REV_AT_EPOCH":63934,"BSTAR":0.0019461033,"MEAN_MOTION_DOT":7.45e-5,"MEAN_MOTION_DDOT":0},{"OBJECT_NAME":"FENGYUN 1C DEB","OBJECT_ID":"1999-025CGV","EPOCH":"2026-04-03T15:52:55.797888","MEAN_MOTION":14.52887554,"ECCENTRICITY":0.0104222,"INCLINATION":99.0896,"RA_OF_ASC_NODE":238.7689,"ARG_OF_PERICENTER":186.0799,"MEAN_ANOMALY":173.9137,"EPHEMERIS_TYPE":0,"CLASSIFICATION_TYPE":"U","NORAD_CAT_ID":31807,"ELEMENT_SET_NO":999,"REV_AT_EPOCH":66930,"BSTAR":0.0016246,"MEAN_MOTION_DOT":7.133e-5,"MEAN_MOTION_DDOT":0},{"OBJECT_NAME":"FENGYUN 1C DEB","OBJECT_ID":"1999-025CGW","EPOCH":"2026-04-01T08:27:05.273568","MEAN_MOTION":14.62976324,"ECCENTRICITY":0.00356087,"INCLINATION":99.2024,"RA_OF_ASC_NODE":295.3424,"ARG_OF_PERICENTER":166.3256,"MEAN_ANOMALY":193.8916,"EPHEMERIS_TYPE":0,"CLASSIFICATION_TYPE":"U","NORAD_CAT_ID":31808,"ELEMENT_SET_NO":999,"REV_AT_EPOCH":59202,"BSTAR":0.0040108742,"MEAN_MOTION_DOT":0.00020738,"MEAN_MOTION_DDOT":0},{"OBJECT_NAME":"FENGYUN 1C DEB","OBJECT_ID":"1999-025CGY","EPOCH":"2026-03-29T18:30:33.272352","MEAN_MOTION":14.46550953,"ECCENTRICITY":0.0211695,"INCLINATION":98.2641,"RA_OF_ASC_NODE":106.5958,"ARG_OF_PERICENTER":173.9706,"MEAN_ANOMALY":186.4111,"EPHEMERIS_TYPE":0,"CLASSIFICATION_TYPE":"U","NORAD_CAT_ID":31810,"ELEMENT_SET_NO":999,"REV_AT_EPOCH":65961,"BSTAR":0.00054625015,"MEAN_MOTION_DOT":2.552e-5,"MEAN_MOTION_DDOT":0},{"OBJECT_NAME":"FENGYUN 1C DEB","OBJECT_ID":"1999-025CHB","EPOCH":"2026-04-04T12:00:53.760672","MEAN_MOTION":14.50382631,"ECCENTRICITY":0.01346788,"INCLINATION":99.4162,"RA_OF_ASC_NODE":192.2972,"ARG_OF_PERICENTER":0.0976,"MEAN_ANOMALY":0.0219,"EPHEMERIS_TYPE":0,"CLASSIFICATION_TYPE":"U","NORAD_CAT_ID":31813,"ELEMENT_SET_NO":999,"REV_AT_EPOCH":98890,"BSTAR":0.00059434174,"MEAN_MOTION_DOT":2.546e-5,"MEAN_MOTION_DDOT":0},{"OBJECT_NAME":"FENGYUN 1C DEB","OBJECT_ID":"1999-025CHC","EPOCH":"2026-03-28T08:53:05.914176","MEAN_MOTION":13.66597135,"ECCENTRICITY":0.02278947,"INCLINATION":99.5557,"RA_OF_ASC_NODE":141.0563,"ARG_OF_PERICENTER":304.4958,"MEAN_ANOMALY":53.4851,"EPHEMERIS_TYPE":0,"CLASSIFICATION_TYPE":"U","NORAD_CAT_ID":31814,"ELEMENT_SET_NO":999,"REV_AT_EPOCH":63242,"BSTAR":0.00051842031,"MEAN_MOTION_DOT":4.69e-6,"MEAN_MOTION_DDOT":0},{"OBJECT_NAME":"FENGYUN 1C DEB","OBJECT_ID":"1999-025CHD","EPOCH":"2026-04-05T04:43:05.130624","MEAN_MOTION":14.10308036,"ECCENTRICITY":0.00598098,"INCLINATION":98.7819,"RA_OF_ASC_NODE":83.7772,"ARG_OF_PERICENTER":60.6911,"MEAN_ANOMALY":300.0218,"EPHEMERIS_TYPE":0,"CLASSIFICATION_TYPE":"U","NORAD_CAT_ID":31815,"ELEMENT_SET_NO":999,"REV_AT_EPOCH":97138,"BSTAR":6.9999693e-5,"MEAN_MOTION_DOT":8.3e-7,"MEAN_MOTION_DDOT":0},{"OBJECT_NAME":"FENGYUN 1C DEB","OBJECT_ID":"1999-025CHE","EPOCH":"2026-04-05T19:22:10.020288","MEAN_MOTION":13.945285,"ECCENTRICITY":0.0122091,"INCLINATION":98.9861,"RA_OF_ASC_NODE":212.0353,"ARG_OF_PERICENTER":201.3125,"MEAN_ANOMALY":311.4759,"EPHEMERIS_TYPE":0,"CLASSIFICATION_TYPE":"U","NORAD_CAT_ID":31816,"ELEMENT_SET_NO":999,"REV_AT_EPOCH":95283,"BSTAR":0.0014217,"MEAN_MOTION_DOT":1.976e-5,"MEAN_MOTION_DDOT":0},{"OBJECT_NAME":"FENGYUN 1C DEB","OBJECT_ID":"1999-025CHF","EPOCH":"2026-04-05T07:08:42.869760","MEAN_MOTION":14.67593189,"ECCENTRICITY":0.0061071,"INCLINATION":98.9213,"RA_OF_ASC_NODE":106.5283,"ARG_OF_PERICENTER":85.4934,"MEAN_ANOMALY":275.3241,"EPHEMERIS_TYPE":0,"CLASSIFICATION_TYPE":"U","NORAD_CAT_ID":31817,"ELEMENT_SET_NO":999,"REV_AT_EPOCH":73070,"BSTAR":0.0015919,"MEAN_MOTION_DOT":9.248e-5,"MEAN_MOTION_DDOT":0},{"OBJECT_NAME":"FENGYUN 1C DEB","OBJECT_ID":"1999-025CHH","EPOCH":"2026-04-03T17:20:11.583456","MEAN_MOTION":14.30428878,"ECCENTRICITY":0.00870616,"INCLINATION":98.4843,"RA_OF_ASC_NODE":87.2002,"ARG_OF_PERICENTER":350.43,"MEAN_ANOMALY":9.5221,"EPHEMERIS_TYPE":0,"CLASSIFICATION_TYPE":"U","NORAD_CAT_ID":31819,"ELEMENT_SET_NO":999,"REV_AT_EPOCH":98294,"BSTAR":0.00060613308,"MEAN_MOTION_DOT":1.6e-5,"MEAN_MOTION_DDOT":0},{"OBJECT_NAME":"FENGYUN 1C DEB","OBJECT_ID":"1999-025CHJ","EPOCH":"2026-04-05T18:28:49.337472","MEAN_MOTION":14.96532505,"ECCENTRICITY":0.0139128,"INCLINATION":98.9638,"RA_OF_ASC_NODE":287.8076,"ARG_OF_PERICENTER":4.7488,"MEAN_ANOMALY":355.5012,"EPHEMERIS_TYPE":0,"CLASSIFICATION_TYPE":"U","NORAD_CAT_ID":31820,"ELEMENT_SET_NO":999,"REV_AT_EPOCH":99959,"BSTAR":0.00091864,"MEAN_MOTION_DOT":0.00012652,"MEAN_MOTION_DDOT":0},{"OBJECT_NAME":"FENGYUN 1C DEB","OBJECT_ID":"1999-025CHK","EPOCH":"2026-04-05T15:25:01.969824","MEAN_MOTION":14.46566691,"ECCENTRICITY":0.0211469,"INCLINATION":98.1561,"RA_OF_ASC_NODE":341.0425,"ARG_OF_PERICENTER":27.124,"MEAN_ANOMALY":334.0815,"EPHEMERIS_TYPE":0,"CLASSIFICATION_TYPE":"U","NORAD_CAT_ID":31821,"ELEMENT_SET_NO":999,"REV_AT_EPOCH":95305,"BSTAR":0.0054436,"MEAN_MOTION_DOT":0.00025978,"MEAN_MOTION_DDOT":0},{"OBJECT_NAME":"FENGYUN 1C DEB","OBJECT_ID":"1999-025CHM","EPOCH":"2026-04-05T05:53:05.374176","MEAN_MOTION":14.68907404,"ECCENTRICITY":0.0035206,"INCLINATION":99.5048,"RA_OF_ASC_NODE":204.5002,"ARG_OF_PERICENTER":228.5255,"MEAN_ANOMALY":131.2922,"EPHEMERIS_TYPE":0,"CLASSIFICATION_TYPE":"U","NORAD_CAT_ID":31823,"ELEMENT_SET_NO":999,"REV_AT_EPOCH":98382,"BSTAR":0.0019121,"MEAN_MOTION_DOT":0.00011243,"MEAN_MOTION_DDOT":0},{"OBJECT_NAME":"FENGYUN 1C DEB","OBJECT_ID":"1999-025CHP","EPOCH":"2026-04-04T05:14:02.043744","MEAN_MOTION":14.21993417,"ECCENTRICITY":0.01655351,"INCLINATION":98.5959,"RA_OF_ASC_NODE":95.9572,"ARG_OF_PERICENTER":12.1498,"MEAN_ANOMALY":348.3598,"EPHEMERIS_TYPE":0,"CLASSIFICATION_TYPE":"U","NORAD_CAT_ID":31825,"ELEMENT_SET_NO":999,"REV_AT_EPOCH":97220,"BSTAR":0.0010480516,"MEAN_MOTION_DOT":2.619e-5,"MEAN_MOTION_DDOT":0},{"OBJECT_NAME":"FENGYUN 1C DEB","OBJECT_ID":"1999-025CHQ","EPOCH":"2026-04-05T10:55:28.419456","MEAN_MOTION":14.19523974,"ECCENTRICITY":0.01228303,"INCLINATION":98.6367,"RA_OF_ASC_NODE":88.7044,"ARG_OF_PERICENTER":221.1576,"MEAN_ANOMALY":302.7284,"EPHEMERIS_TYPE":0,"CLASSIFICATION_TYPE":"U","NORAD_CAT_ID":31826,"ELEMENT_SET_NO":999,"REV_AT_EPOCH":97427,"BSTAR":0.00037837062,"MEAN_MOTION_DOT":8.16e-6,"MEAN_MOTION_DDOT":0},{"OBJECT_NAME":"FENGYUN 1C DEB","OBJECT_ID":"1999-025CHT","EPOCH":"2026-04-04T23:16:48.902880","MEAN_MOTION":13.8880632,"ECCENTRICITY":0.01683997,"INCLINATION":98.8491,"RA_OF_ASC_NODE":264.0443,"ARG_OF_PERICENTER":215.5795,"MEAN_ANOMALY":301.6469,"EPHEMERIS_TYPE":0,"CLASSIFICATION_TYPE":"U","NORAD_CAT_ID":31829,"ELEMENT_SET_NO":999,"REV_AT_EPOCH":95719,"BSTAR":0.00051388915,"MEAN_MOTION_DOT":6.53e-6,"MEAN_MOTION_DDOT":0}]
