FENGYUN 1C DEB          
1 31805U 99025CGT 26093.67032336  .00007450  00000+0  19461-2 0  9990
2 31805  98.3756  74.4472 0438146 200.6605 157.6362 14.05041985639342
FENGYUN 1C DEB          
1 31807U 99025CGV 26093.66175692  .00007133  00000+0  16246-2 0  9990
2 31807  99.0896 238.7689 0104222 186.0799 173.9137 14.52887554669300
FENGYUN 1C DEB          
1 31808U 99025CGW 26091.35214437  .00020738  00000+0  40109-2 0  9997
2 31808  99.2024 295.3424 0035608 166.3256 193.8916 14.62976324592027
FENGYUN 1C DEB          
1 31810U 99025CGY 26088.77121843  .00002552  00000+0  54625-3 0  9993
2 31810  98.2641 106.5958 0211695 173.9706 186.4111 14.46550953659617
FENGYUN 1C DEB          
1 31813U 99025CHB 26094.50062223  .00002546  00000+0  59434-3 0  9996
2 31813  99.4162 192.2972 0134678   0.0976   0.0219 14.50382631988901
FENGYUN 1C DEB          
1 31814U 99025CHC 26087.37020734  .00000469  00000+0  51842-3 0  9992
2 31814  99.5557 141.0563 0227894 304.4958  53.4851 13.66597135632423
FENGYUN 1C DEB          
1 31815U 99025CHD 26095.19658716  .00000083  00000+0  70000-4 0  9999
2 31815  98.7819  83.7772 0059809  60.6911 300.0218 14.10308036971388
FENGYUN 1C DEB          
1 31816U 99025CHE 26095.80706042  .00001976  00000+0  14217-2 0  9992
2 31816  98.9861 212.0353 0122091 201.3125 311.4759 13.94528500952831
FENGYUN 1C DEB          
1 31817U 99025CHF 26095.29771840  .00009248  00000+0  15919-2 0  9994
2 31817  98.9213 106.5283 0061071  85.4934 275.3241 14.67593189730701
FENGYUN 1C DEB          
1 31819U 99025CHH 26093.72235629  .00001600  00000+0  60613-3 0  9998
2 31819  98.4843  87.2002 0087061 350.4300   9.5221 14.30428878982942
FENGYUN 1C DEB          
1 31820U 99025CHJ 26095.77001548  .00012652  00000+0  91864-3 0  9999
2 31820  98.9638 287.8076 0139128   4.7488 355.5012 14.96532505999594
FENGYUN 1C DEB          
1 31821U 99025CHK 26095.64238391  .00025978  00000+0  54436-2 0  9992
2 31821  98.1561 341.0425 0211469  27.1240 334.0815 14.46566691953059
FENGYUN 1C DEB          
1 31823U 99025CHM 26095.24520109  .00011243  00000+0  19121-2 0  9993
2 31823  99.5048 204.5002 0035206 228.5255 131.2922 14.68907404983825
FENGYUN 1C DEB          
1 31825U 99025CHP 26094.21807921  .00002619  00000+0  10481-2 0  9998
2 31825  98.5959  95.9572 0165535  12.1498 348.3598 14.21993417972204
FENGYUN 1C DEB          
1 31826U 99025CHQ 26095.45519004  .00000816  00000+0  37837-3 0  9990
2 31826  98.6367  88.7044 0122830 221.1576 302.7284 14.19523974974272
FENGYUN 1C DEB          
1 31829U 99025CHT 26094.97001045  .00000653  00000+0  51389-3 0  9997
2 31829  98.8491 264.0443 0168399 215.5795 301.6469 13.88806320957196
